ADRAS-J                 
1 58992U 24034A   24164.69046866  .00004091  00000+0  38217-3 0  9995
2 58992  98.2123 137.5037 0045994  64.9675 295.6309 14.93962506 17191
